ONEWEB-0656             
1 55817U 23029X   25243.28284428  .00000132  00000+0  29216-3 0  9994
2 55817  87.9298 332.2069 0002348 102.9503 257.1893 13.20772144122880
ONEWEB-0657             
1 55818U 23029Y   25243.60447647  .00000225  00000+0  52953-3 0  9992
2 55818  87.9272   2.5662 0002008 121.7482 238.3847 13.19724657120711
ONEWEB-0658             
1 55819U 23029Z   25243.59973128  .00000064  00000+0  12734-3 0  9993
2 55819  87.9285   2.5033 0001322  94.5490 265.5794 13.19725238120722
ONEWEB-0660             
1 55820U 23029AA  25243.57460841  .00000276  00000+0  71038-3 0  9993
2 55820  87.9094 347.3349 0001774  88.8072 271.3261 13.14504743121350
ONEWEB-0661             
1 55821U 23029AB  25243.60949672 -.00000033  00000+0 -12352-3 0  9999
2 55821  87.9097 347.3999 0001880  88.0026 272.1319 13.14503031121345
ONEWEB-0662             
1 55822U 23029AC  25243.56826320  .00000085  00000+0  19599-3 0  9994
2 55822  87.9091 347.4148 0001703  88.6178 271.5147 13.14503061121384
ONEWEB-0663             
1 55823U 23029AD  25243.48721566  .00000037  00000+0  58705-4 0  9992
2 55823  87.9306 332.2234 0001613  86.6417 273.4901 13.20844955122901
ONEWEB-0664             
1 55824U 23029AE  25243.49748747  .00000017  00000+0  97201-5 0  9997
2 55824  87.9298 332.2424 0002199  92.1426 267.9959 13.20770231122901
